CCSDS_OMM_VERS = 2.0
CREATION_DATE  = 
ORIGINATOR     = 

OBJECT_NAME    = SL-14 R/B
OBJECT_ID      = 1986-046B
CENTER_NAME    = EARTH
REF_FRAME      = TEME
TIME_SYSTEM    = UTC
MEAN_ELEMENT_THEORY = SGP/SGP4

EPOCH          = 2026-02-15T04:13:16.478688
MEAN_MOTION    = 14.85567900
ECCENTRICITY   = .0021764
INCLINATION    = 82.4802
RA_OF_ASC_NODE = 101.4591
ARG_OF_PERICENTER = 304.6045
MEAN_ANOMALY   = 55.3118

EPHEMERIS_TYPE = 0
CLASSIFICATION_TYPE = U
NORAD_CAT_ID   = 16792
ELEMENT_SET_NO = 999
REV_AT_EPOCH   = 12306
BSTAR          = .45922E-4
MEAN_MOTION_DOT = .422E-5
MEAN_MOTION_DDOT = 0

CCSDS_OMM_VERS = 2.0
CREATION_DATE  = 
ORIGINATOR     = 

OBJECT_NAME    = SL-14 R/B
OBJECT_ID      = 1986-055B
CENTER_NAME    = EARTH
REF_FRAME      = TEME
TIME_SYSTEM    = UTC
MEAN_ELEMENT_THEORY = SGP/SGP4

EPOCH          = 2026-02-14T18:40:43.608864
MEAN_MOTION    = 14.85618967
ECCENTRICITY   = .0020049
INCLINATION    = 82.5232
RA_OF_ASC_NODE = 148.2029
ARG_OF_PERICENTER = 51.1169
MEAN_ANOMALY   = 64.5029

EPHEMERIS_TYPE = 0
CLASSIFICATION_TYPE = U
NORAD_CAT_ID   = 16882
ELEMENT_SET_NO = 999
REV_AT_EPOCH   = 11596
BSTAR          = .58995E-4
MEAN_MOTION_DOT = .537E-5
MEAN_MOTION_DDOT = 0

CCSDS_OMM_VERS = 2.0
CREATION_DATE  = 
ORIGINATOR     = 

OBJECT_NAME    = AJISAI (EGS)
OBJECT_ID      = 1986-061A
CENTER_NAME    = EARTH
REF_FRAME      = TEME
TIME_SYSTEM    = UTC
MEAN_ELEMENT_THEORY = SGP/SGP4

EPOCH          = 2026-02-15T03:34:06.513600
MEAN_MOTION    = 12.44515357
ECCENTRICITY   = .0011233
INCLINATION    = 50.0082
RA_OF_ASC_NODE = 162.6612
ARG_OF_PERICENTER = 228.8936
MEAN_ANOMALY   = 197.9506

EPHEMERIS_TYPE = 0
CLASSIFICATION_TYPE = U
NORAD_CAT_ID   = 16908
ELEMENT_SET_NO = 999
REV_AT_EPOCH   = 46519
BSTAR          = -.89093E-4
MEAN_MOTION_DOT = -.11E-5
MEAN_MOTION_DDOT = 0

CCSDS_OMM_VERS = 2.0
CREATION_DATE  = 
ORIGINATOR     = 

OBJECT_NAME    = COSMOS 1812
OBJECT_ID      = 1987-003A
CENTER_NAME    = EARTH
REF_FRAME      = TEME
TIME_SYSTEM    = UTC
MEAN_ELEMENT_THEORY = SGP/SGP4

EPOCH          = 2026-02-14T22:37:32.685888
MEAN_MOTION    = 15.99190660
ECCENTRICITY   = .0002196
INCLINATION    = 82.4756
RA_OF_ASC_NODE = 221.5186
ARG_OF_PERICENTER = 306.0458
MEAN_ANOMALY   = 54.0616

EPHEMERIS_TYPE = 0
CLASSIFICATION_TYPE = U
NORAD_CAT_ID   = 17295
ELEMENT_SET_NO = 999
REV_AT_EPOCH   = 14082
BSTAR          = .6529E-3
MEAN_MOTION_DOT = .31627E-2
MEAN_MOTION_DDOT = .39829E-4

CCSDS_OMM_VERS = 2.0
CREATION_DATE  = 
ORIGINATOR     = 

OBJECT_NAME    = SL-14 R/B
OBJECT_ID      = 1987-024B
CENTER_NAME    = EARTH
REF_FRAME      = TEME
TIME_SYSTEM    = UTC
MEAN_ELEMENT_THEORY = SGP/SGP4

EPOCH          = 2026-02-15T03:36:14.897952
MEAN_MOTION    = 14.86110109
ECCENTRICITY   = .0017588
INCLINATION    = 82.5279
RA_OF_ASC_NODE = 113.9497
ARG_OF_PERICENTER = 340.1315
MEAN_ANOMALY   = 19.9214

EPHEMERIS_TYPE = 0
CLASSIFICATION_TYPE = U
NORAD_CAT_ID   = 17567
ELEMENT_SET_NO = 999
REV_AT_EPOCH   = 8478
BSTAR          = .45003E-4
MEAN_MOTION_DOT = .419E-5
MEAN_MOTION_DDOT = 0

CCSDS_OMM_VERS = 2.0
CREATION_DATE  = 
ORIGINATOR     = 

OBJECT_NAME    = COSMOS 1833
OBJECT_ID      = 1987-027A
CENTER_NAME    = EARTH
REF_FRAME      = TEME
TIME_SYSTEM    = UTC
MEAN_ELEMENT_THEORY = SGP/SGP4

EPOCH          = 2026-02-15T03:17:02.732352
MEAN_MOTION    = 14.13057290
ECCENTRICITY   = .0024902
INCLINATION    = 70.9224
RA_OF_ASC_NODE = 13.4151
ARG_OF_PERICENTER = 244.9187
MEAN_ANOMALY   = 114.9350

EPHEMERIS_TYPE = 0
CLASSIFICATION_TYPE = U
NORAD_CAT_ID   = 17589
ELEMENT_SET_NO = 999
REV_AT_EPOCH   = 713
BSTAR          = .11478E-4
MEAN_MOTION_DOT = -.27E-6
MEAN_MOTION_DDOT = 0

CCSDS_OMM_VERS = 2.0
CREATION_DATE  = 
ORIGINATOR     = 

OBJECT_NAME    = SL-16 R/B
OBJECT_ID      = 1987-027B
CENTER_NAME    = EARTH
REF_FRAME      = TEME
TIME_SYSTEM    = UTC
MEAN_ELEMENT_THEORY = SGP/SGP4

EPOCH          = 2026-02-15T04:13:11.818272
MEAN_MOTION    = 14.17162854
ECCENTRICITY   = .0004703
INCLINATION    = 71.0044
RA_OF_ASC_NODE = 323.9369
ARG_OF_PERICENTER = 182.5721
MEAN_ANOMALY   = 177.5379

EPHEMERIS_TYPE = 0
CLASSIFICATION_TYPE = U
NORAD_CAT_ID   = 17590
ELEMENT_SET_NO = 999
REV_AT_EPOCH   = 1215
BSTAR          = .40144E-4
MEAN_MOTION_DOT = .33E-6
MEAN_MOTION_DDOT = 0

CCSDS_OMM_VERS = 2.0
CREATION_DATE  = 
ORIGINATOR     = 

OBJECT_NAME    = SL-14 R/B
OBJECT_ID      = 1987-038B
CENTER_NAME    = EARTH
REF_FRAME      = TEME
TIME_SYSTEM    = UTC
MEAN_ELEMENT_THEORY = SGP/SGP4

EPOCH          = 2026-02-15T03:12:16.693920
MEAN_MOTION    = 14.85347205
ECCENTRICITY   = .0017839
INCLINATION    = 82.5039
RA_OF_ASC_NODE = 318.0526
ARG_OF_PERICENTER = 236.8997
MEAN_ANOMALY   = 123.0507

EPHEMERIS_TYPE = 0
CLASSIFICATION_TYPE = U
NORAD_CAT_ID   = 17912
ELEMENT_SET_NO = 999
REV_AT_EPOCH   = 7588
BSTAR          = .50417E-4
MEAN_MOTION_DOT = .458E-5
MEAN_MOTION_DDOT = 0

CCSDS_OMM_VERS = 2.0
CREATION_DATE  = 
ORIGINATOR     = 

OBJECT_NAME    = COSMOS 1844
OBJECT_ID      = 1987-041A
CENTER_NAME    = EARTH
REF_FRAME      = TEME
TIME_SYSTEM    = UTC
MEAN_ELEMENT_THEORY = SGP/SGP4

EPOCH          = 2026-02-15T03:00:17.093376
MEAN_MOTION    = 14.14546793
ECCENTRICITY   = .0029008
INCLINATION    = 70.8979
RA_OF_ASC_NODE = 81.7721
ARG_OF_PERICENTER = 53.9534
MEAN_ANOMALY   = 306.4269

EPHEMERIS_TYPE = 0
CLASSIFICATION_TYPE = U
NORAD_CAT_ID   = 17973
ELEMENT_SET_NO = 999
REV_AT_EPOCH   = 39
BSTAR          = .23977E-3
MEAN_MOTION_DOT = .414E-5
MEAN_MOTION_DDOT = 0

CCSDS_OMM_VERS = 2.0
CREATION_DATE  = 
ORIGINATOR     = 

OBJECT_NAME    = SL-14 R/B
OBJECT_ID      = 1987-055B
CENTER_NAME    = EARTH
REF_FRAME      = TEME
TIME_SYSTEM    = UTC
MEAN_ELEMENT_THEORY = SGP/SGP4

EPOCH          = 2026-02-14T23:30:46.690848
MEAN_MOTION    = 14.85600096
ECCENTRICITY   = .0022348
INCLINATION    = 82.5006
RA_OF_ASC_NODE = 10.4303
ARG_OF_PERICENTER = 88.6864
MEAN_ANOMALY   = 271.6912

EPHEMERIS_TYPE = 0
CLASSIFICATION_TYPE = U
NORAD_CAT_ID   = 18153
ELEMENT_SET_NO = 999
REV_AT_EPOCH   = 6656
BSTAR          = .58345E-4
MEAN_MOTION_DOT = .532E-5
MEAN_MOTION_DDOT = 0

CCSDS_OMM_VERS = 2.0
CREATION_DATE  = 
ORIGINATOR     = 

OBJECT_NAME    = COSMOS 1867
OBJECT_ID      = 1987-060A
CENTER_NAME    = EARTH
REF_FRAME      = TEME
TIME_SYSTEM    = UTC
MEAN_ELEMENT_THEORY = SGP/SGP4

EPOCH          = 2026-02-15T03:43:46.954848
MEAN_MOTION    = 14.31499314
ECCENTRICITY   = .0014143
INCLINATION    = 65.0119
RA_OF_ASC_NODE = 9.8094
ARG_OF_PERICENTER = 277.1592
MEAN_ANOMALY   = 82.7884

EPHEMERIS_TYPE = 0
CLASSIFICATION_TYPE = U
NORAD_CAT_ID   = 18187
ELEMENT_SET_NO = 999
REV_AT_EPOCH   = 1671
BSTAR          = .25033E-4
MEAN_MOTION_DOT = -.34E-6
MEAN_MOTION_DDOT = 0

CCSDS_OMM_VERS = 2.0
CREATION_DATE  = 
ORIGINATOR     = 

OBJECT_NAME    = SL-14 R/B
OBJECT_ID      = 1988-001B
CENTER_NAME    = EARTH
REF_FRAME      = TEME
TIME_SYSTEM    = UTC
MEAN_ELEMENT_THEORY = SGP/SGP4

EPOCH          = 2026-02-14T23:21:44.065152
MEAN_MOTION    = 14.85499125
ECCENTRICITY   = .0017002
INCLINATION    = 82.5113
RA_OF_ASC_NODE = 216.7250
ARG_OF_PERICENTER = 317.1838
MEAN_ANOMALY   = 42.8053

EPHEMERIS_TYPE = 0
CLASSIFICATION_TYPE = U
NORAD_CAT_ID   = 18749
ELEMENT_SET_NO = 999
REV_AT_EPOCH   = 3865
BSTAR          = .53565E-4
MEAN_MOTION_DOT = .487E-5
MEAN_MOTION_DDOT = 0

