SL-14 R/B               
1 16792U 86046B   26046.17588517  .00000422  00000+0  45922-4 0  9992
2 16792  82.4802 101.4591 0021764 304.6045  55.3118 14.85567900123064
SL-14 R/B               
1 16882U 86055B   26045.77828251  .00000537  00000+0  58995-4 0  9990
2 16882  82.5232 148.2029 0020049  51.1169  64.5029 14.85618967115966
AJISAI (EGS)            
1 16908U 86061A   26046.14868650 -.00000110  00000+0 -89093-4 0  9997
2 16908  50.0082 162.6612 0011233 228.8936 197.9506 12.44515357465192
COSMOS 1812             
1 17295U 87003A   26045.94273942  .00316270  39829-4  65290-3 0  9998
2 17295  82.4756 221.5186 0002196 306.0458  54.0616 15.99190660140820
SL-14 R/B               
1 17567U 87024B   26046.15017243  .00000419  00000+0  45003-4 0  9997
2 17567  82.5279 113.9497 0017588 340.1315  19.9214 14.86110109 84785
COSMOS 1833             
1 17589U 87027A   26046.13683718 -.00000027  00000+0  11478-4 0  9993
2 17589  70.9224  13.4151 0024902 244.9187 114.9350 14.13057290  7139
SL-16 R/B               
1 17590U 87027B   26046.17583123  .00000033  00000+0  40144-4 0  9996
2 17590  71.0044 323.9369 0004703 182.5721 177.5379 14.17162854 12152
SL-14 R/B               
1 17912U 87038B   26046.13352655  .00000458  00000+0  50417-4 0  9991
2 17912  82.5039 318.0526 0017839 236.8997 123.0507 14.85347205 75881
COSMOS 1844             
1 17973U 87041A   26046.12519784  .00000414  00000+0  23977-3 0  9991
2 17973  70.8979  81.7721 0029008  53.9534 306.4269 14.14546793   399
SL-14 R/B               
1 18153U 87055B   26045.97970707  .00000532  00000+0  58345-4 0  9994
2 18153  82.5006  10.4303 0022348  88.6864 271.6912 14.85600096 66561
COSMOS 1867             
1 18187U 87060A   26046.15540457 -.00000034  00000+0  25033-4 0  9999
2 18187  65.0119   9.8094 0014143 277.1592  82.7884 14.31499314 16716
SL-14 R/B               
1 18749U 88001B   26045.97342668  .00000487  00000+0  53565-4 0  9994
2 18749  82.5113 216.7250 0017002 317.1838  42.8053 14.85499125 38657
